TANAGER-1               
1 60507U 24149AR  26203.53766765  .00000262  00000+0  76110-5 0  9995
2 60507  97.2319 297.6298 0003600 123.9157 236.2434 15.43942180108494
